[{"OBJECT_NAME":"GHOST-3","OBJECT_ID":"2023-084AC","EPOCH":"2026-03-09T21:14:09.446784","MEAN_MOTION":15.44198134,"ECCENTRICITY":0.00064568,"INCLINATION":97.6062,"RA_OF_ASC_NODE":212.4847,"ARG_OF_PERICENTER":293.3516,"MEAN_ANOMALY":66.7052,"EPHEMERIS_TYPE":0,"CLASSIFICATION_TYPE":"U","NORAD_CAT_ID":56958,"ELEMENT_SET_NO":999,"REV_AT_EPOCH":15267,"BSTAR":0.00048344236,"MEAN_MOTION_DOT":0.00022139,"MEAN_MOTION_DDOT":0},{"OBJECT_NAME":"COLIBRI-S (RS67S)","OBJECT_ID":"2024-199M","EPOCH":"2026-03-09T22:39:12.638592","MEAN_MOTION":15.43465994,"ECCENTRICITY":0.00075412,"INCLINATION":97.3155,"RA_OF_ASC_NODE":302.1068,"ARG_OF_PERICENTER":284.1345,"MEAN_ANOMALY":75.9065,"EPHEMERIS_TYPE":0,"CLASSIFICATION_TYPE":"U","NORAD_CAT_ID":61746,"ELEMENT_SET_NO":999,"REV_AT_EPOCH":12208,"BSTAR":0.00055253762,"MEAN_MOTION_DOT":0.00024717,"MEAN_MOTION_DDOT":0}]
